{"fetched_at":"2026-07-12T07:15:41.752Z","source":"https://celestrak.org/NORAD/elements/gp.php?NAME=HAWK&FORMAT=JSON","constellation":"hawkeye-360","records":[{"OBJECT_NAME":"HAWK-7B","OBJECT_ID":"2023-054R","EPOCH":"2026-07-11T17:48:11.615904","CLASSIFICATION_TYPE":"U","MEAN_MOTION":15.27606976,"ECCENTRICITY":0.00017472,"INCLINATION":97.2701,"RA_OF_ASC_NODE":77.7279,"ARG_OF_PERICENTER":22.4503,"MEAN_ANOMALY":337.6813,"EPHEMERIS_TYPE":0,"NORAD_CAT_ID":56193,"ELEMENT_SET_NO":999,"REV_AT_EPOCH":18077,"BSTAR":0.00011418663,"MEAN_MOTION_DOT":0.0000301,"MEAN_MOTION_DDOT":0},{"OBJECT_NAME":"HAWK-7C","OBJECT_ID":"2023-054Y","EPOCH":"2026-07-11T16:13:41.954592","CLASSIFICATION_TYPE":"U","MEAN_MOTION":15.27610645,"ECCENTRICITY":0.00012807,"INCLINATION":97.2677,"RA_OF_ASC_NODE":78.4249,"ARG_OF_PERICENTER":7.1495,"MEAN_ANOMALY":352.9762,"EPHEMERIS_TYPE":0,"NORAD_CAT_ID":56200,"ELEMENT_SET_NO":999,"REV_AT_EPOCH":18076,"BSTAR":0.00012426229,"MEAN_MOTION_DOT":0.00003282,"MEAN_MOTION_DDOT":0},{"OBJECT_NAME":"HAWK-8A","OBJECT_ID":"2024-066B","EPOCH":"2026-07-11T05:36:22.361760","CLASSIFICATION_TYPE":"U","MEAN_MOTION":14.99279652,"ECCENTRICITY":0.00027078,"INCLINATION":45.5949,"RA_OF_ASC_NODE":152.3028,"ARG_OF_PERICENTER":203.5144,"MEAN_ANOMALY":156.5614,"EPHEMERIS_TYPE":0,"NORAD_CAT_ID":59443,"ELEMENT_SET_NO":999,"REV_AT_EPOCH":12344,"BSTAR":0.000075483669,"MEAN_MOTION_DOT":0.00000704,"MEAN_MOTION_DDOT":0},{"OBJECT_NAME":"HAWK-8B","OBJECT_ID":"2024-066D","EPOCH":"2026-07-11T00:49:11.087904","CLASSIFICATION_TYPE":"U","MEAN_MOTION":14.99278929,"ECCENTRICITY":0.00029666,"INCLINATION":45.6155,"RA_OF_ASC_NODE":155.305,"ARG_OF_PERICENTER":205.9425,"MEAN_ANOMALY":154.1308,"EPHEMERIS_TYPE":0,"NORAD_CAT_ID":59445,"ELEMENT_SET_NO":999,"REV_AT_EPOCH":12340,"BSTAR":0.00036392082,"MEAN_MOTION_DOT":0.00004278,"MEAN_MOTION_DDOT":0},{"OBJECT_NAME":"HAWK-9A","OBJECT_ID":"2024-066E","EPOCH":"2026-07-11T06:09:38.813472","CLASSIFICATION_TYPE":"U","MEAN_MOTION":14.99208192,"ECCENTRICITY":0.00024229,"INCLINATION":45.609,"RA_OF_ASC_NODE":152.82,"ARG_OF_PERICENTER":188.0403,"MEAN_ANOMALY":172.044,"EPHEMERIS_TYPE":0,"NORAD_CAT_ID":59446,"ELEMENT_SET_NO":999,"REV_AT_EPOCH":12344,"BSTAR":0.000082942725,"MEAN_MOTION_DOT":0.00000794,"MEAN_MOTION_DDOT":0},{"OBJECT_NAME":"HAWK-9C","OBJECT_ID":"2024-066G","EPOCH":"2026-07-11T22:09:35.099424","CLASSIFICATION_TYPE":"U","MEAN_MOTION":14.9921335,"ECCENTRICITY":0.00022796,"INCLINATION":45.6051,"RA_OF_ASC_NODE":148.4738,"ARG_OF_PERICENTER":173.2072,"MEAN_ANOMALY":186.884,"EPHEMERIS_TYPE":0,"NORAD_CAT_ID":59448,"ELEMENT_SET_NO":999,"REV_AT_EPOCH":12354,"BSTAR":0.00008721101,"MEAN_MOTION_DOT":0.00000847,"MEAN_MOTION_DDOT":0},{"OBJECT_NAME":"HAWK-8C","OBJECT_ID":"2024-066H","EPOCH":"2026-07-11T21:35:47.789952","CLASSIFICATION_TYPE":"U","MEAN_MOTION":14.99284429,"ECCENTRICITY":0.00025296,"INCLINATION":45.6069,"RA_OF_ASC_NODE":149.8517,"ARG_OF_PERICENTER":216.664,"MEAN_ANOMALY":143.4068,"EPHEMERIS_TYPE":0,"NORAD_CAT_ID":59449,"ELEMENT_SET_NO":999,"REV_AT_EPOCH":12353,"BSTAR":0.000073671347,"MEAN_MOTION_DOT":0.00000682,"MEAN_MOTION_DDOT":0},{"OBJECT_NAME":"HAWK-9B","OBJECT_ID":"2024-066J","EPOCH":"2026-07-11T06:10:04.053504","CLASSIFICATION_TYPE":"U","MEAN_MOTION":14.99209751,"ECCENTRICITY":0.00024266,"INCLINATION":45.613,"RA_OF_ASC_NODE":153.7545,"ARG_OF_PERICENTER":164.1569,"MEAN_ANOMALY":195.9388,"EPHEMERIS_TYPE":0,"NORAD_CAT_ID":59450,"ELEMENT_SET_NO":999,"REV_AT_EPOCH":12344,"BSTAR":0.000088712285,"MEAN_MOTION_DOT":0.00000866,"MEAN_MOTION_DDOT":0},{"OBJECT_NAME":"HAWK-10A","OBJECT_ID":"2024-149CA","EPOCH":"2026-07-11T21:48:14.280768","CLASSIFICATION_TYPE":"U","MEAN_MOTION":14.96588901,"ECCENTRICITY":0.00034487,"INCLINATION":97.6893,"RA_OF_ASC_NODE":268.3954,"ARG_OF_PERICENTER":17.5419,"MEAN_ANOMALY":342.5921,"EPHEMERIS_TYPE":0,"NORAD_CAT_ID":60540,"ELEMENT_SET_NO":999,"REV_AT_EPOCH":10368,"BSTAR":0.000067051907,"MEAN_MOTION_DOT":0.00000706,"MEAN_MOTION_DDOT":0},{"OBJECT_NAME":"HAWK-10B","OBJECT_ID":"2024-149CF","EPOCH":"2026-07-11T18:35:28.831200","CLASSIFICATION_TYPE":"U","MEAN_MOTION":14.9658783,"ECCENTRICITY":0.0005811,"INCLINATION":97.6812,"RA_OF_ASC_NODE":267.594,"ARG_OF_PERICENTER":27.0134,"MEAN_ANOMALY":333.1389,"EPHEMERIS_TYPE":0,"NORAD_CAT_ID":60545,"ELEMENT_SET_NO":999,"REV_AT_EPOCH":10366,"BSTAR":0.000059343572,"MEAN_MOTION_DOT":0.00000618,"MEAN_MOTION_DDOT":0},{"OBJECT_NAME":"HAWK-10C","OBJECT_ID":"2024-149DM","EPOCH":"2026-07-11T18:35:57.480576","CLASSIFICATION_TYPE":"U","MEAN_MOTION":14.96586892,"ECCENTRICITY":0.00029762,"INCLINATION":97.6731,"RA_OF_ASC_NODE":266.9081,"ARG_OF_PERICENTER":5.8193,"MEAN_ANOMALY":354.3063,"EPHEMERIS_TYPE":0,"NORAD_CAT_ID":60575,"ELEMENT_SET_NO":999,"REV_AT_EPOCH":10366,"BSTAR":0.000048414647,"MEAN_MOTION_DOT":0.00000494,"MEAN_MOTION_DDOT":0},{"OBJECT_NAME":"HAWK-11B","OBJECT_ID":"2024-247C","EPOCH":"2026-07-11T07:40:36.984000","CLASSIFICATION_TYPE":"U","MEAN_MOTION":15.30632142,"ECCENTRICITY":0.00035723,"INCLINATION":45.0133,"RA_OF_ASC_NODE":157.4287,"ARG_OF_PERICENTER":358.9894,"MEAN_ANOMALY":1.0982,"EPHEMERIS_TYPE":0,"NORAD_CAT_ID":62379,"ELEMENT_SET_NO":999,"REV_AT_EPOCH":8670,"BSTAR":0.00015648512,"MEAN_MOTION_DOT":0.00004419,"MEAN_MOTION_DDOT":0},{"OBJECT_NAME":"HAWK-11C","OBJECT_ID":"2024-247E","EPOCH":"2026-07-11T21:45:46.406304","CLASSIFICATION_TYPE":"U","MEAN_MOTION":15.30634627,"ECCENTRICITY":0.00044175,"INCLINATION":45.0017,"RA_OF_ASC_NODE":153.5448,"ARG_OF_PERICENTER":351.8498,"MEAN_ANOMALY":8.2314,"EPHEMERIS_TYPE":0,"NORAD_CAT_ID":62381,"ELEMENT_SET_NO":999,"REV_AT_EPOCH":8679,"BSTAR":0.00015480433,"MEAN_MOTION_DOT":0.00004369,"MEAN_MOTION_DDOT":0},{"OBJECT_NAME":"HAWK-11A","OBJECT_ID":"2024-247F","EPOCH":"2026-07-10T22:16:11.620992","CLASSIFICATION_TYPE":"U","MEAN_MOTION":15.30622161,"ECCENTRICITY":0.00040652,"INCLINATION":44.9912,"RA_OF_ASC_NODE":158.2462,"ARG_OF_PERICENTER":346.2323,"MEAN_ANOMALY":13.845,"EPHEMERIS_TYPE":0,"NORAD_CAT_ID":62382,"ELEMENT_SET_NO":999,"REV_AT_EPOCH":8664,"BSTAR":0.00012010662,"MEAN_MOTION_DOT":0.00003319,"MEAN_MOTION_DDOT":0},{"OBJECT_NAME":"HAWK-12C","OBJECT_ID":"2025-138A","EPOCH":"2026-07-11T13:25:13.753344","CLASSIFICATION_TYPE":"U","MEAN_MOTION":15.18388166,"ECCENTRICITY":0.00155685,"INCLINATION":97.4348,"RA_OF_ASC_NODE":194.5915,"ARG_OF_PERICENTER":62.5737,"MEAN_ANOMALY":297.7079,"EPHEMERIS_TYPE":0,"NORAD_CAT_ID":64621,"ELEMENT_SET_NO":999,"REV_AT_EPOCH":5756,"BSTAR":0.00013236063,"MEAN_MOTION_DOT":0.00002661,"MEAN_MOTION_DDOT":0},{"OBJECT_NAME":"HAWK-12B","OBJECT_ID":"2025-138B","EPOCH":"2026-07-11T13:25:28.727328","CLASSIFICATION_TYPE":"U","MEAN_MOTION":15.18387603,"ECCENTRICITY":0.00144547,"INCLINATION":97.4473,"RA_OF_ASC_NODE":195.2793,"ARG_OF_PERICENTER":58.7627,"MEAN_ANOMALY":301.5021,"EPHEMERIS_TYPE":0,"NORAD_CAT_ID":64622,"ELEMENT_SET_NO":999,"REV_AT_EPOCH":5756,"BSTAR":0.00013201974,"MEAN_MOTION_DOT":0.00002653,"MEAN_MOTION_DDOT":0}]}
